SCD 1                   
1 22490U 93009B   26166.59127841  .00000356  00000+0  46373-4 0  9996
2 22490  24.9679 217.4320 0042110 120.8760  12.4034 14.46118380760886
TECHSAT 1B (GO-32)      
1 25397U 98043D   26166.58928680  .00000030  00000+0  32966-4 0  9999
2 25397  99.0067 159.3076 0000971 166.4736 193.6468 14.24428093451105
SCD 2                   
1 25504U 98060A   26166.45887400  .00000355  00000+0  48192-4 0  9996
2 25504  24.9951  82.8156 0016969 104.8665  56.4534 14.45525235460079
DLR-TUBSAT              
1 25757U 99029B   26166.57117555  .00000060  00000+0  26639-4 0  9997
2 25757  98.6695 162.0221 0014157   0.1582 359.9615 14.52426502433019
TERRA                   
1 25994U 99068A   26166.59087417  .00000320  00000+0  74204-4 0  9998
2 25994  97.9457 216.2004 0001454 195.2632 286.2211 14.61101935409375
MAROC-TUBSAT            
1 27004U 01056D   26166.46744825 -.00000031  00000+0  18117-4 0  9992
2 27004  99.8080 343.2946 0020276 145.5742 269.4903 13.70262425225953
AQUA                    
1 27424U 02022A   26166.56263127  .00000667  00000+0  14236-3 0  9995
2 27424  98.4276 135.8130 0001163  53.1413  81.5660 14.62155971283039
SHIYAN-1 (SY-1)         
1 28220U 04012A   26166.48732927  .00010415  00000+0  32183-3 0  9994
2 28220  97.8694 244.4449 0005745  38.5995 321.5656 15.33722326210836
AURA                    
1 28376U 04026A   26166.54820273  .00000650  00000+0  14144-3 0  9997
2 28376  98.3417 122.9879 0001226  74.0864 286.0472 14.61326899165974
IRS-P5 (CARTOSAT-1)     
1 28649U 05017A   26166.60190910  .00001272  00000+0  13385-3 0  9993
2 28649  97.5309 189.7382 0002627  81.6299 278.5217 14.91045680143585
SINAH 1                 
1 28893U 05043D   26166.61903465  .00000259  00000+0  58693-4 0  9997
2 28893  98.2858 300.9318 0013143 282.1990  77.7740 14.64156732100292
RESURS-DK 1             
1 29228U 06021A   26166.58108801  .00002194  00000+0  12931-3 0  9998
2 29228  69.9341 343.7102 0006861 293.0834  66.9608 15.13213166102330
ARIRANG-2 (KOMPSAT-2)   
1 29268U 06031A   26166.59073535  .00000301  00000+0  64885-4 0  9993
2 29268  97.8299 351.1145 0015917  79.2160  12.4326 14.64659586 61246
LAPAN-TUBSAT            
1 29709U 07001A   26166.57089669  .00001030  00000+0  12453-3 0  9997
2 29709  98.1335 165.7582 0011704 184.4344 175.6769 14.85951927 50910
HAIYANG-1B              
1 31113U 07010A   26166.53664194  .00000065  00000+0  40480-4 0  9996
2 31113  98.3494 148.4458 0012918 201.3718 158.6928 14.31026508   408
COSMO-SKYMED 1          
1 31598U 07023A   26166.66458821  .00002226  00000+0  19819-3 0  9991
2 31598  97.8839 358.5075 0001192  99.1869 260.9487 14.97092639 29568
TERRASAR-X              
1 31698U 07026A   26166.54501914  .00000298  00000+0  17394-4 0  9998
2 31698  97.4452 174.2739 0001604  89.1769 270.9649 15.19148908 52970
WORLDVIEW-1 (WV-1)      
1 32060U 07041A   26166.58522839  .00004971  00000+0  20663-3 0  9996
2 32060  97.3879 286.3515 0002409  25.8158 334.3199 15.24251890 42634
YAOGAN-3                
1 32289U 07055A   26166.65070381  .00002538  00000+0  26386-3 0  9997
2 32289  97.8155 196.5436 0002011  83.0541 277.0905 14.90780538  5640
COSMO-SKYMED 2          
1 32376U 07059A   26166.60830394  .00000345  00000+0  49909-4 0  9992
2 32376  97.8885 350.2291 0001373  86.5213 273.6157 14.82153933  1774
RADARSAT-2              
1 32382U 07061A   26166.63839485  .00000117  00000+0  62190-4 0  9999
2 32382  98.5771 173.5926 0001299  82.1576 277.9754 14.29981600965731
CARTOSAT-2A             
1 32783U 08021A   26166.62600586  .00001034  00000+0  14578-3 0  9993
2 32783  97.7637 215.3878 0013111 113.3058 246.9535 14.79237867978570
HUANJING 1A (HJ-1A)     
1 33320U 08041A   26166.61548698  .00000569  00000+0  74282-4 0  9998
2 33320  97.6675 152.5144 0019830 139.4914 220.7781 14.83982449958176
HUANJING 1B (HJ-1B)     
1 33321U 08041B   26166.65130595  .00000582  00000+0  76576-4 0  9999
2 33321  97.6508 155.7249 0035854 186.0943 173.9841 14.83313137958186
GEOEYE 1                
1 33331U 08042A   26166.58071108  .00000405  00000+0  84888-4 0  9996
2 33331  98.1236 240.5323 0005452  73.5300 286.6501 14.64724452949916
THEOS                   
1 33396U 08049A   26166.63019977  .00000520  00000+0  26365-3 0  9999
2 33396  98.5576 223.9643 0001219  79.2792 280.8522 14.20134808917740
COSMO-SKYMED 3          
1 33412U 08054A   26166.61594119  .00003689  00000+0  25063-3 0  9991
2 33412  97.8283  25.1604 0014320 272.4433  87.5154 15.06946002956705
YAOGAN-4                
1 33446U 08061A   26166.54798695  .00000846  00000+0  10997-3 0  9995
2 33446  97.9307 100.0703 0015743  77.3071 282.9902 14.83197278945429
GOSAT (IBUKI)           
1 33492U 09002A   26166.57016751  .00000975  00000+0  18045-3 0  9996
2 33492  98.0888 277.6715 0001574  85.4023 274.7361 14.67540733931225
DEIMOS-1                
1 35681U 09041A   26166.55852214  .00000843  00000+0  13168-3 0  9996
2 35681  97.7393 323.8566 0001492 131.5476 228.5862 14.75237773906643
